{
  "type": "FeatureCollection",
  "features": [
    {
      "type": "Feature",
      "properties": {
        "norad_id": 58701,
        "name": "TIANMU-1 16",
        "group": "weather",
        "lat": -47.22829681514606,
        "lon": -24.061696198006214,
        "alt_km": 499.25096337861123,
        "timestamp": "2025-12-09T04:51:47.151989+00:00",
        "meta_object_name": "TIANMU-1 16",
        "meta_object_id": "2024-004B",
        "meta_epoch": "2025-12-08T19:59:22.856352",
        "meta_mean_motion": 15.24353383,
        "meta_eccentricity": 0.000467,
        "meta_inclination": 97.4569,
        "meta_ra_of_asc_node": 163.71,
        "meta_arg_of_pericenter": 313.3281,
        "meta_mean_anomaly": 46.7567,
        "meta_ephemeris_type": 0,
        "meta_classification_type": "U",
        "meta_norad_cat_id": 58701,
        "meta_element_set_no": 999,
        "meta_rev_at_epoch": 10675,
        "meta_bstar": 0.00043101,
        "meta_mean_motion_dot": 0.00010486,
        "meta_mean_motion_ddot": 0,
        "tle_line1": "1 58701U 24004B   25342.83290343  .00010486  00000+0  43101-3 0  9999",
        "tle_line2": "2 58701  97.4569 163.7100 0004670 313.3281  46.7567 15.24353383106750"
      },
      "geometry": {
        "type": "Point",
        "coordinates": [
          -24.061696198006214,
          -47.22829681514606
        ]
      }
    },
    {
      "type": "Feature",
      "properties": {
        "norad_id": 58702,
        "name": "TIANMU-1 17",
        "group": "weather",
        "lat": -47.895511112809764,
        "lon": 172.8233201249864,
        "alt_km": 496.78888858418213,
        "timestamp": "2025-12-09T04:51:47.151999+00:00",
        "meta_object_name": "TIANMU-1 17",
        "meta_object_id": "2024-004C",
        "meta_epoch": "2025-12-08T19:37:21.713088",
        "meta_mean_motion": 15.24397343,
        "meta_eccentricity": 0.0003894,
        "meta_inclination": 97.4603,
        "meta_ra_of_asc_node": 164.1027,
        "meta_arg_of_pericenter": 317.4455,
        "meta_mean_anomaly": 42.648,
        "meta_ephemeris_type": 0,
        "meta_classification_type": "U",
        "meta_norad_cat_id": 58702,
        "meta_element_set_no": 999,
        "meta_rev_at_epoch": 10674,
        "meta_bstar": 0.00042004,
        "meta_mean_motion_dot": 0.0001023,
        "meta_mean_motion_ddot": 0,
        "tle_line1": "1 58702U 24004C   25342.81761242  .00010230  00000+0  42004-3 0  9997",
        "tle_line2": "2 58702  97.4603 164.1027 0003894 317.4455  42.6480 15.24397343106740"
      },
      "geometry": {
        "type": "Point",
        "coordinates": [
          172.8233201249864,
          -47.895511112809764
        ]
      }
    },
    {
      "type": "Feature",
      "properties": {
        "norad_id": 58703,
        "name": "TIANMU-1 18",
        "group": "weather",
        "lat": 42.814335941988546,
        "lon": 157.70584083597595,
        "alt_km": 488.98918258426966,
        "timestamp": "2025-12-09T04:51:47.152011+00:00",
        "meta_object_name": "TIANMU-1 18",
        "meta_object_id": "2024-004D",
        "meta_epoch": "2025-12-08T20:47:48.953184",
        "meta_mean_motion": 15.24387495,
        "meta_eccentricity": 0.0003258,
        "meta_inclination": 97.462,
        "meta_ra_of_asc_node": 164.346,
        "meta_arg_of_pericenter": 318.3038,
        "meta_mean_anomaly": 41.795,
        "meta_ephemeris_type": 0,
        "meta_classification_type": "U",
        "meta_norad_cat_id": 58703,
        "meta_element_set_no": 999,
        "meta_rev_at_epoch": 10675,
        "meta_bstar": 0.0004342,
        "meta_mean_motion_dot": 0.00010574,
        "meta_mean_motion_ddot": 0,
        "tle_line1": "1 58703U 24004D   25342.86653881  .00010574  00000+0  43420-3 0  9996",
        "tle_line2": "2 58703  97.4620 164.3460 0003258 318.3038  41.7950 15.24387495106754"
      },
      "geometry": {
        "type": "Point",
        "coordinates": [
          157.70584083597595,
          42.814335941988546
        ]
      }
    },
    {
      "type": "Feature",
      "properties": {
        "norad_id": 58990,
        "name": "INSAT-3DS",
        "group": "weather",
        "lat": -0.00819219879906376,
        "lon": -126.78983017990511,
        "alt_km": 35780.66698295732,
        "timestamp": "2025-12-09T04:51:47.152023+00:00",
        "meta_object_name": "INSAT-3DS",
        "meta_object_id": "2024-033A",
        "meta_epoch": "2025-12-08T19:07:51.582720",
        "meta_mean_motion": 1.00269579,
        "meta_eccentricity": 0.0001671,
        "meta_inclination": 0.0153,
        "meta_ra_of_asc_node": 78.832,
        "meta_arg_of_pericenter": 185.619,
        "meta_mean_anomaly": 182.3948,
        "meta_ephemeris_type": 0,
        "meta_classification_type": "U",
        "meta_norad_cat_id": 58990,
        "meta_element_set_no": 999,
        "meta_rev_at_epoch": 4515,
        "meta_bstar": 0,
        "meta_mean_motion_dot": -1.53e-06,
        "meta_mean_motion_ddot": 0,
        "tle_line1": "1 58990U 24033A   25342.79712480 -.00000153  00000+0  00000+0 0  9995",
        "tle_line2": "2 58990   0.0153  78.8320 0001671 185.6190 182.3948  1.00269579 45154"
      },
      "geometry": {
        "type": "Point",
        "coordinates": [
          -126.78983017990511,
          -0.00819219879906376
        ]
      }
    },
    {
      "type": "Feature",
      "properties": {
        "norad_id": 59051,
        "name": "METEOR-M2 4",
        "group": "weather",
        "lat": 72.79294215898375,
        "lon": -89.3743528208253,
        "alt_km": 808.1446105279638,
        "timestamp": "2025-12-09T04:51:47.152036+00:00",
        "meta_object_name": "METEOR-M2 4",
        "meta_object_id": "2024-039A",
        "meta_epoch": "2025-12-08T21:45:31.862592",
        "meta_mean_motion": 14.22400463,
        "meta_eccentricity": 0.0007257,
        "meta_inclination": 98.6761,
        "meta_ra_of_asc_node": 299.8758,
        "meta_arg_of_pericenter": 9.4637,
        "meta_mean_anomaly": 350.6676,
        "meta_ephemeris_type": 0,
        "meta_classification_type": "U",
        "meta_norad_cat_id": 59051,
        "meta_element_set_no": 999,
        "meta_rev_at_epoch": 9221,
        "meta_bstar": 7.0495e-05,
        "meta_mean_motion_dot": 1.13e-06,
        "meta_mean_motion_ddot": 0,
        "tle_line1": "1 59051U 24039A   25342.90661878  .00000113  00000+0  70495-4 0  9992",
        "tle_line2": "2 59051  98.6761 299.8758 0007257   9.4637 350.6676 14.22400463 92210"
      },
      "geometry": {
        "type": "Point",
        "coordinates": [
          -89.3743528208253,
          72.79294215898375
        ]
      }
    },
    {
      "type": "Feature",
      "properties": {
        "norad_id": 60133,
        "name": "GOES 19",
        "group": "weather",
        "lat": 0.011324448057186477,
        "lon": 75.96795402075898,
        "alt_km": 35790.24921774672,
        "timestamp": "2025-12-09T04:51:47.152048+00:00",
        "meta_object_name": "GOES 19",
        "meta_object_id": "2024-119A",
        "meta_epoch": "2025-12-08T18:22:48.398880",
        "meta_mean_motion": 1.00271039,
        "meta_eccentricity": 0.0001332,
        "meta_inclination": 0.0347,
        "meta_ra_of_asc_node": 184.3786,
        "meta_arg_of_pericenter": 117.6205,
        "meta_mean_anomaly": 336.2875,
        "meta_ephemeris_type": 0,
        "meta_classification_type": "U",
        "meta_norad_cat_id": 60133,
        "meta_element_set_no": 999,
        "meta_rev_at_epoch": 505,
        "meta_bstar": 0,
        "meta_mean_motion_dot": -2.46e-06,
        "meta_mean_motion_ddot": 0,
        "tle_line1": "1 60133U 24119A   25342.76583795 -.00000246  00000+0  00000+0 0  9997",
        "tle_line2": "2 60133   0.0347 184.3786 0001332 117.6205 336.2875  1.00271039  5054"
      },
      "geometry": {
        "type": "Point",
        "coordinates": [
          75.96795402075898,
          0.011324448057186477
        ]
      }
    },
    {
      "type": "Feature",
      "properties": {
        "norad_id": 65815,
        "name": "FENGYUN 3H",
        "group": "weather",
        "lat": -14.257230212285856,
        "lon": -74.91119870720019,
        "alt_km": 830.3060987998397,
        "timestamp": "2025-12-09T04:51:47.152061+00:00",
        "meta_object_name": "FENGYUN 3H",
        "meta_object_id": "2025-219A",
        "meta_epoch": "2025-12-08T20:28:29.344224",
        "meta_mean_motion": 14.19903172,
        "meta_eccentricity": 6.05e-05,
        "meta_inclination": 98.6579,
        "meta_ra_of_asc_node": 282.5281,
        "meta_arg_of_pericenter": 83.6677,
        "meta_mean_anomaly": 276.4569,
        "meta_ephemeris_type": 0,
        "meta_classification_type": "U",
        "meta_norad_cat_id": 65815,
        "meta_element_set_no": 999,
        "meta_rev_at_epoch": 1037,
        "meta_bstar": 0.00012538,
        "meta_mean_motion_dot": 2.23e-06,
        "meta_mean_motion_ddot": 0,
        "tle_line1": "1 65815U 25219A   25342.85311741  .00000223  00000+0  12538-3 0  9998",
        "tle_line2": "2 65815  98.6579 282.5281 0000605  83.6677 276.4569 14.19903172 10374"
      },
      "geometry": {
        "type": "Point",
        "coordinates": [
          -74.91119870720019,
          -14.257230212285856
        ]
      }
    }
  ]
}